     */
    RunTle(Tle("NAVSTAR 53 (USA 175)",
            "1 28129U 03058A   06175.57071136 -.00000104  00000-0  10000-3 0   459",
            "2 28129  54.7298 324.8098 0048506 266.2640  93.1663  2.00562768 18443"), 0.0, 1440.0, 120.0);


    /*
    #   COSMOS 2405         # Near Earth, perigee = 127.20 (< 156) s4 mod
    1 28350U 04020A   06167.21788666  .16154492  76267-5  18678-3 0  8894
    2 28350  64.9977 345.6130 0024870 260.7578  99.9590 16.47856722116490      0.0      2880.0        120.00
     */
    RunTle(Tle("COSMOS 2405",
            "1 28350U 04020A   06167.21788666  .16154492  76267-5  18678-3 0  8894",
            "2 28350  64.9977 345.6130 0024870 260.7578  99.9590 16.47856722116490"), 0.0, 2880.0, 120.0);


    /*
    #   H-2 R/B                   # Deep space, perigee = 135.75 (<156) s4 mod
    1 28623U 05006B   06177.81079184  .00637644  69054-6  96390-3 0  6000
    2 28623  28.5200 114.9834 6249053 170.2550 212.8965  3.79477162 12753      0.0      1440.0        120.00
     */
    RunTle(Tle("H-2 R/B",
            "1 28623U 05006B   06177.81079184  .00637644  69054-6  96390-3 0  6000",
            "2 28623  28.5200 114.9834 6249053 170.2550 212.8965  3.79477162 12753"), 0.0, 1440.0, 120.0);


    /*
    #   XM-3                      # 24h resonant geo, incl < 3 deg goes
    #                       # negative around 1130 min
    1 28626U 05008A   06176.46683397 -.00000205  00000-0  10000-3 0  2190
    2 28626   0.0019 286.9433 0000335  13.7918  55.6504  1.00270176  4891      0.0      1440.0        120.00
     */
    RunTle(Tle("XM-3",
            "1 28626U 05008A   06176.46683397 -.00000205  00000-0  10000-3 0  2190",
            "2 28626   0.0019 286.9433 0000335  13.7918  55.6504  1.00270176  4891"), 0.0, 1440.0, 120.0);


    /*
    #   MINOTAUR R/B        # Sub-orbital case - Decayed 2005-11-29
    #                       #(perigee = -51km), lost in 50 minutes
    1 28872U 05037B   05333.02012661  .25992681  00000-0  24476-3 0  1534
    2 28872  96.4736 157.9986 0303955 244.0492 110.6523 16.46015938 10708      0.0        60.0          5.00
     */
    RunTle(Tle("MINOTAUR R/B",
            "1 28872U 05037B   05333.02012661  .25992681  00000-0  24476-3 0  1534",
            "2 28872  96.4736 157.9986 0303955 244.0492 110.6523 16.46015938 10708"), 0.0, 60.0, 5.0);


    /*
    #   SL-14 DEB           # Last stage of decay - lost in under 420 min
    1 29141U 85108AA  06170.26783845  .99999999  00000-0  13519-0 0   718
    2 29141  82.4288 273.4882 0015848 277.2124  83.9133 15.93343074  6828      0.0       440.0         20.00
     */
    RunTle(Tle("SL-14 DEB",
            "1 29141U 85108AA  06170.26783845  .99999999  00000-0  13519-0 0   718",
            "2 29141  82.4288 273.4882 0015848 277.2124  83.9133 15.93343074  6828"), 0.0, 440.0, 20.0);


    /*
    #   SL-12 DEB           # Near Earth, perigee = 212.24 < 220
    #                       # simplified drag eq
    1 29238U 06022G   06177.28732010  .00766286  10823-4  13334-2 0   101
    2 29238  51.5595 213.7903 0202579  95.2503 267.9010 15.73823839  1061      0.0      1440.0        120.00
     */
    RunTle(Tle("SL-12 DEB",
            "1 29238U 06022G   06177.28732010  .00766286  10823-4  13334-2 0   101",
            "2 29238  51.5595 213.7903 0202579  95.2503 267.9010 15.73823839  1061"), 0.0, 1440.0, 120.0);


    /*
    #                       # Original STR#3 SGP4 test
    1 88888U          80275.98708465  .00073094  13844-3  66816-4 0    87
    2 88888  72.8435 115.9689 0086731  52.6988 110.5714 16.05824518  1058      0.0      1440.0        120.00
     */
    RunTle(Tle("88888",
            "1 88888U          80275.98708465  .00073094  13844-3  66816-4 0    87",
            "2 88888  72.8435 115.9689 0086731  52.6988 110.5714 16.05824518  1058"), 0.0, 1440.0, 120.0);


    /*
    #
    #                       # check error code 4
    1 33333U 05037B   05333.02012661  .25992681  00000-0  24476-3 0  1534
    2 33333  96.4736 157.9986 9950000 244.0492 110.6523  4.00004038 10708      0.0       150.0          5.00
     */
    RunTle(Tle("33333",
            "1 33333U 05037B   05333.02012661  .25992681  00000-0  24476-3 0  1534",
            "2 33333  96.4736 157.9986 9950000 244.0492 110.6523  4.00004038 10708"), 0.0, 150.0, 5.0);


    /*
    #                       # try and check error code 2 but this
    1 33334U 78066F   06174.85818871  .00000620  00000-0  10000-3 0  6809
    2 33334  68.4714 236.1303 5602877 123.7484 302.5767  0.00001000 67521      0.0      1440.0         1.00
     */
    RunTle(Tle("33334",
            "1 33334U 78066F   06174.85818871  .00000620  00000-0  10000-3 0  6809",
            "2 33334  68.4714 236.1303 5602877 123.7484 302.5767  0.00001000 67521"), 0.0, 1440.0, 1.0);


    /*
    #                       # try to check error code 3 looks like ep never goes below zero, tied close to ecc
    1 33335U 05008A   06176.46683397 -.00000205  00000-0  10000-3 0  2190
    2 33335   0.0019 286.9433 0000004  13.7918  55.6504  1.00270176  4891      0.0      1440.0         20.00
